ONEWEB-0545             
1 54647U 22166F   24212.69957429  .00000092  00000+0  19008-3 0  9996
2 54647  87.9284  20.6620 0002219  82.0535 278.0850 13.21827224 81280
ONEWEB-0580             
1 54648U 22166G   24212.89984820  .00000033  00000+0  48443-4 0  9995
2 54648  87.9291  20.5940 0002422  89.8442 270.2970 13.21827112 81341
ONEWEB-0582             
1 54649U 22166H   24212.86673781  .00000029  00000+0  39330-4 0  9994
2 54649  87.9290  20.6366 0002560  92.4376 267.7051 13.21827002 81320
ONEWEB-0583             
1 54650U 22166J   24212.72637612  .00000091  00000+0  18837-3 0  9991
2 54650  87.9288  20.6639 0001891  89.1237 271.0113 13.21827626 81326
ONEWEB-0584             
1 54651U 22166K   24212.44410027  .00000054  00000+0  99047-4 0  9992
2 54651  87.9293  20.6880 0002172  89.4368 270.7015 13.21827155 80796
ONEWEB-0585             
1 54652U 22166L   24212.69640978  .00000071  00000+0  13976-3 0  9995
2 54652  87.9296  20.6475 0001730  92.8354 267.2978 13.21827935 81305
ONEWEB-0586             
1 54653U 22166M   24212.70903839  .00000114  00000+0  24546-3 0  9999
2 54653  87.9288  20.6572 0002056  88.4401 271.6969 13.21825329 81305
ONEWEB-0587             
1 54654U 22166N   24212.86988934  .00000008  00000+0 -10994-4 0  9992
2 54654  87.9288  20.5798 0001551  93.6701 266.4610 13.21824474 81478
